[{"OBJECT_NAME":"NEXSAT-1","OBJECT_ID":"2024-024E","EPOCH":"2026-03-09T22:47:24.778176","MEAN_MOTION":15.32166372,"ECCENTRICITY":0.00099795,"INCLINATION":97.3124,"RA_OF_ASC_NODE":144.1918,"ARG_OF_PERICENTER":108.5709,"MEAN_ANOMALY":251.6617,"EPHEMERIS_TYPE":0,"CLASSIFICATION_TYPE":"U","NORAD_CAT_ID":58921,"ELEMENT_SET_NO":999,"REV_AT_EPOCH":11669,"BSTAR":0.00031433612,"MEAN_MOTION_DOT":9.702e-5,"MEAN_MOTION_DDOT":0},{"OBJECT_NAME":"STARLINK-35742","OBJECT_ID":"2025-247M","EPOCH":"2026-03-09T14:58:48.835776","MEAN_MOTION":15.30189377,"ECCENTRICITY":0.0001058,"INCLINATION":53.1577,"RA_OF_ASC_NODE":191.7465,"ARG_OF_PERICENTER":61.117,"MEAN_ANOMALY":298.9937,"EPHEMERIS_TYPE":0,"CLASSIFICATION_TYPE":"U","NORAD_CAT_ID":66276,"ELEMENT_SET_NO":999,"REV_AT_EPOCH":2107,"BSTAR":0.0015947,"MEAN_MOTION_DOT":0.00047156,"MEAN_MOTION_DDOT":0}]
